{
  "type": "FeatureCollection",
  "features": [
    {
      "type": "Feature",
      "properties": {
        "norad_id": 36274,
        "name": "FENGYUN 1C DEB",
        "group": "fengyun-1c-debris",
        "lat": 41.646122352533474,
        "lon": -115.32081498105737,
        "alt_km": 821.4864071773582,
        "timestamp": "2025-12-08T10:52:03.236031+00:00",
        "meta_object_name": "FENGYUN 1C DEB",
        "meta_object_id": "1999-025DXB",
        "meta_epoch": "2025-12-06T23:38:05.684928",
        "meta_mean_motion": 14.23354105,
        "meta_eccentricity": 0.00619764,
        "meta_inclination": 99.1397,
        "meta_ra_of_asc_node": 54.9244,
        "meta_arg_of_pericenter": 246.4059,
        "meta_mean_anomaly": 293.7298,
        "meta_ephemeris_type": 0,
        "meta_classification_type": "U",
        "meta_norad_cat_id": 36274,
        "meta_element_set_no": 999,
        "meta_rev_at_epoch": 62903,
        "meta_bstar": 0.004546576,
        "meta_mean_motion_dot": 0.00010482,
        "meta_mean_motion_ddot": 0,
        "tle_line1": "1 36274U 99025DXB 25340.98478802  .00010482  00000+0  45466-2 0  9998",
        "tle_line2": "2 36274  99.1397  54.9244 0061976 246.4059 293.7298 14.23354105629037"
      },
      "geometry": {
        "type": "Point",
        "coordinates": [
          -115.32081498105737,
          41.646122352533474
        ]
      }
    },
    {
      "type": "Feature",
      "properties": {
        "norad_id": 36278,
        "name": "FENGYUN 1C DEB",
        "group": "fengyun-1c-debris",
        "lat": 76.162699352477,
        "lon": 121.35537787541335,
        "alt_km": 867.7935620678873,
        "timestamp": "2025-12-08T10:52:03.236042+00:00",
        "meta_object_name": "FENGYUN 1C DEB",
        "meta_object_id": "1999-025DXF",
        "meta_epoch": "2025-12-04T01:21:08.443872",
        "meta_mean_motion": 14.17353569,
        "meta_eccentricity": 0.00613363,
        "meta_inclination": 99.1236,
        "meta_ra_of_asc_node": 256.1206,
        "meta_arg_of_pericenter": 315.5831,
        "meta_mean_anomaly": 44.0433,
        "meta_ephemeris_type": 0,
        "meta_classification_type": "U",
        "meta_norad_cat_id": 36278,
        "meta_element_set_no": 999,
        "meta_rev_at_epoch": 93353,
        "meta_bstar": 0.0008477729,
        "meta_mean_motion_dot": 1.7e-05,
        "meta_mean_motion_ddot": 0,
        "tle_line1": "1 36278U 99025DXF 25338.05634773  .00001700  00000+0  84777-3 0  9990",
        "tle_line2": "2 36278  99.1236 256.1206 0061336 315.5831  44.0433 14.17353569933530"
      },
      "geometry": {
        "type": "Point",
        "coordinates": [
          121.35537787541335,
          76.162699352477
        ]
      }
    },
    {
      "type": "Feature",
      "properties": {
        "norad_id": 36279,
        "name": "FENGYUN 1C DEB",
        "group": "fengyun-1c-debris",
        "lat": 13.714442095097974,
        "lon": 142.7410648620457,
        "alt_km": 851.2391961301828,
        "timestamp": "2025-12-08T10:52:03.236052+00:00",
        "meta_object_name": "FENGYUN 1C DEB",
        "meta_object_id": "1999-025DXG",
        "meta_epoch": "2025-11-25T16:33:32.008320",
        "meta_mean_motion": 14.14714647,
        "meta_eccentricity": 0.00629921,
        "meta_inclination": 98.56,
        "meta_ra_of_asc_node": 308.3956,
        "meta_arg_of_pericenter": 103.3746,
        "meta_mean_anomaly": 257.4461,
        "meta_ephemeris_type": 0,
        "meta_classification_type": "U",
        "meta_norad_cat_id": 36279,
        "meta_element_set_no": 999,
        "meta_rev_at_epoch": 88798,
        "meta_bstar": 0.00016006279,
        "meta_mean_motion_dot": 2.73e-06,
        "meta_mean_motion_ddot": 0,
        "tle_line1": "1 36279U 99025DXG 25329.68995380  .00000273  00000+0  16006-3 0  9998",
        "tle_line2": "2 36279  98.5600 308.3956 0062992 103.3746 257.4461 14.14714647887981"
      },
      "geometry": {
        "type": "Point",
        "coordinates": [
          142.7410648620457,
          13.714442095097974
        ]
      }
    },
    {
      "type": "Feature",
      "properties": {
        "norad_id": 36280,
        "name": "FENGYUN 1C DEB",
        "group": "fengyun-1c-debris",
        "lat": -76.61997756350476,
        "lon": 52.00372914208126,
        "alt_km": 909.9800809018725,
        "timestamp": "2025-12-08T10:52:03.236062+00:00",
        "meta_object_name": "FENGYUN 1C DEB",
        "meta_object_id": "1999-025DXH",
        "meta_epoch": "2025-12-07T20:44:47.963328",
        "meta_mean_motion": 14.09717264,
        "meta_eccentricity": 0.00634301,
        "meta_inclination": 98.7668,
        "meta_ra_of_asc_node": 10.9842,
        "meta_arg_of_pericenter": 79.2053,
        "meta_mean_anomaly": 96.9282,
        "meta_ephemeris_type": 0,
        "meta_classification_type": "U",
        "meta_norad_cat_id": 36280,
        "meta_element_set_no": 999,
        "meta_rev_at_epoch": 86285,
        "meta_bstar": 0.0013978894,
        "meta_mean_motion_dot": 2.457e-05,
        "meta_mean_motion_ddot": 0,
        "tle_line1": "1 36280U 99025DXH 25341.86444402  .00002457  00000+0  13979-2 0  9999",
        "tle_line2": "2 36280  98.7668  10.9842 0063430  79.2053  96.9282 14.09717264862857"
      },
      "geometry": {
        "type": "Point",
        "coordinates": [
          52.00372914208126,
          -76.61997756350476
        ]
      }
    },
    {
      "type": "Feature",
      "properties": {
        "norad_id": 36281,
        "name": "FENGYUN 1C DEB",
        "group": "fengyun-1c-debris",
        "lat": -79.88268000155257,
        "lon": 18.547609871819578,
        "alt_km": 1213.4462177519417,
        "timestamp": "2025-12-08T10:52:03.236071+00:00",
        "meta_object_name": "FENGYUN 1C DEB",
        "meta_object_id": "1999-025DXJ",
        "meta_epoch": "2025-12-07T12:24:11.780928",
        "meta_mean_motion": 13.60209206,
        "meta_eccentricity": 0.02894078,
        "meta_inclination": 99.2583,
        "meta_ra_of_asc_node": 263.7361,
        "meta_arg_of_pericenter": 124.3777,
        "meta_mean_anomaly": 238.5099,
        "meta_ephemeris_type": 0,
        "meta_classification_type": "U",
        "meta_norad_cat_id": 36281,
        "meta_element_set_no": 999,
        "meta_rev_at_epoch": 84446,
        "meta_bstar": 0.0039765391,
        "meta_mean_motion_dot": 3.889e-05,
        "meta_mean_motion_ddot": 0,
        "tle_line1": "1 36281U 99025DXJ 25341.51680302  .00003889  00000+0  39765-2 0  9994",
        "tle_line2": "2 36281  99.2583 263.7361 0289407 124.3777 238.5099 13.60209206844468"
      },
      "geometry": {
        "type": "Point",
        "coordinates": [
          18.547609871819578,
          -79.88268000155257
        ]
      }
    },
    {
      "type": "Feature",
      "properties": {
        "norad_id": 36283,
        "name": "FENGYUN 1C DEB",
        "group": "fengyun-1c-debris",
        "lat": 2.4908393423291715,
        "lon": -53.81101711211069,
        "alt_km": 527.7756293767334,
        "timestamp": "2025-12-08T10:52:03.236081+00:00",
        "meta_object_name": "FENGYUN 1C DEB",
        "meta_object_id": "1999-025DXL",
        "meta_epoch": "2025-11-28T03:35:45.168576",
        "meta_mean_motion": 15.05092252,
        "meta_eccentricity": 0.00695379,
        "meta_inclination": 99.4205,
        "meta_ra_of_asc_node": 294.0447,
        "meta_arg_of_pericenter": 95.6406,
        "meta_mean_anomaly": 265.275,
        "meta_ephemeris_type": 0,
        "meta_classification_type": "U",
        "meta_norad_cat_id": 36283,
        "meta_element_set_no": 999,
        "meta_rev_at_epoch": 66446,
        "meta_bstar": 0.0018499593,
        "meta_mean_motion_dot": 0.00027782,
        "meta_mean_motion_ddot": 0,
        "tle_line1": "1 36283U 99025DXL 25332.14982834  .00027782  00000+0  18500-2 0  9992",
        "tle_line2": "2 36283  99.4205 294.0447 0069537  95.6406 265.2750 15.05092252664467"
      },
      "geometry": {
        "type": "Point",
        "coordinates": [
          -53.81101711211069,
          2.4908393423291715
        ]
      }
    },
    {
      "type": "Feature",
      "properties": {
        "norad_id": 36644,
        "name": "FENGYUN 1C DEB",
        "group": "fengyun-1c-debris",
        "lat": 74.206103561624,
        "lon": -26.7589240299592,
        "alt_km": 1018.4001570158744,
        "timestamp": "2025-12-08T10:52:03.236091+00:00",
        "meta_object_name": "FENGYUN 1C DEB",
        "meta_object_id": "1999-025DXN",
        "meta_epoch": "2025-12-06T15:56:19.275936",
        "meta_mean_motion": 13.59167664,
        "meta_eccentricity": 0.02857814,
        "meta_inclination": 98.4234,
        "meta_ra_of_asc_node": 120.1104,
        "meta_arg_of_pericenter": 196.1478,
        "meta_mean_anomaly": 163.0413,
        "meta_ephemeris_type": 0,
        "meta_classification_type": "U",
        "meta_norad_cat_id": 36644,
        "meta_element_set_no": 999,
        "meta_rev_at_epoch": 61485,
        "meta_bstar": 0.0026178612,
        "meta_mean_motion_dot": 2.485e-05,
        "meta_mean_motion_ddot": 0,
        "tle_line1": "1 36644U 99025DXN 25340.66411199  .00002485  00000+0  26179-2 0  9994",
        "tle_line2": "2 36644  98.4234 120.1104 0285781 196.1478 163.0413 13.59167664614851"
      },
      "geometry": {
        "type": "Point",
        "coordinates": [
          -26.7589240299592,
          74.206103561624
        ]
      }
    }
  ]
}